GLOBALSTAR M001         
1 25162U 98008A   25039.59982501 -.00000063  00000+0  26104-3 0  9994
2 25162  52.0061 347.4883 0001683 355.1879  55.2560 12.38206734227780
GLOBALSTAR M004         
1 25163U 98008B   25039.53765551 -.00000086  00000+0  10071-3 0  9994
2 25163  51.9999  86.6286 0002819  13.7407 151.1347 12.63387455245422
GLOBALSTAR M003         
1 25165U 98008D   25039.64804219  .00000000  00000+0  95807-3 0  9998
2 25165  51.9983 164.5146 0008174  39.4363  61.9209 12.12070271217630
GLOBALSTAR M014         
1 25306U 98023A   25039.57394970 -.00000099  00000+0 -39538-3 0  9991
2 25306  51.9831 128.6094 0001747 124.5130 340.9685 11.65478109176179
GLOBALSTAR M006         
1 25307U 98023B   25039.62692905 -.00000080  00000+0 -80014-4 0  9993
2 25307  51.9919 176.1421 0003049 216.8224 231.7630 11.58172382201931
GLOBALSTAR M015         
1 25308U 98023C   25039.39518021 -.00000065  00000+0  18623-3 0  9992
2 25308  51.9806 269.2923 0012058 203.3216 328.1246 11.48857742179274
GLOBALSTAR M008         
1 25309U 98023D   25039.20013375 -.00000060  00000+0  28180-3 0  9999
2 25309  51.9941 212.0197 0001548 257.3642 272.6608 12.36062479221892
